[{"OBJECT_NAME":"SCD 1","OBJECT_ID":"1993-009B","EPOCH":"2026-03-06T06:25:47.811072","MEAN_MOTION":14.460655,"ECCENTRICITY":0.00421722,"INCLINATION":24.9685,"RA_OF_ASC_NODE":123.0152,"ARG_OF_PERICENTER":128.4833,"MEAN_ANOMALY":288.8131,"EPHEMERIS_TYPE":0,"CLASSIFICATION_TYPE":"U","NORAD_CAT_ID":22490,"ELEMENT_SET_NO":999,"REV_AT_EPOCH":74620,"BSTAR":0.00010967548,"MEAN_MOTION_DOT":5.88e-6,"MEAN_MOTION_DDOT":0},{"OBJECT_NAME":"TECHSAT 1B (GO-32)","OBJECT_ID":"1998-043D","EPOCH":"2026-03-05T22:43:31.797120","MEAN_MOTION":14.24404795,"ECCENTRICITY":0.00019522,"INCLINATION":99.0023,"RA_OF_ASC_NODE":55.1278,"ARG_OF_PERICENTER":125.5048,"MEAN_ANOMALY":234.6312,"EPHEMERIS_TYPE":0,"CLASSIFICATION_TYPE":"U","NORAD_CAT_ID":25397,"ELEMENT_SET_NO":999,"REV_AT_EPOCH":43663,"BSTAR":6.3443942e-5,"MEAN_MOTION_DOT":1.0e-6,"MEAN_MOTION_DDOT":0},{"OBJECT_NAME":"SCD 2","OBJECT_ID":"1998-060A","EPOCH":"2026-03-06T02:27:29.392128","MEAN_MOTION":14.45480534,"ECCENTRICITY":0.00169771,"INCLINATION":24.9967,"RA_OF_ASC_NODE":347.8635,"ARG_OF_PERICENTER":113.6203,"MEAN_ANOMALY":16.2133,"EPHEMERIS_TYPE":0,"CLASSIFICATION_TYPE":"U","NORAD_CAT_ID":25504,"ELEMENT_SET_NO":999,"REV_AT_EPOCH":44539,"BSTAR":9.3362558e-5,"MEAN_MOTION_DOT":5.17e-6,"MEAN_MOTION_DDOT":0},{"OBJECT_NAME":"DLR-TUBSAT","OBJECT_ID":"1999-029B","EPOCH":"2026-03-06T05:34:44.848992","MEAN_MOTION":14.52395819,"ECCENTRICITY":0.00132718,"INCLINATION":98.6662,"RA_OF_ASC_NODE":57.3707,"ARG_OF_PERICENTER":306.1413,"MEAN_ANOMALY":53.8553,"EPHEMERIS_TYPE":0,"CLASSIFICATION_TYPE":"U","NORAD_CAT_ID":25757,"ELEMENT_SET_NO":999,"REV_AT_EPOCH":41830,"BSTAR":5.425713e-5,"MEAN_MOTION_DOT":1.73e-6,"MEAN_MOTION_DDOT":0},{"OBJECT_NAME":"TERRA","OBJECT_ID":"1999-068A","EPOCH":"2026-03-06T05:22:40.363392","MEAN_MOTION":14.61010573,"ECCENTRICITY":0.00024965,"INCLINATION":97.96,"RA_OF_ASC_NODE":118.7911,"ARG_OF_PERICENTER":159.7278,"MEAN_ANOMALY":270.0945,"EPHEMERIS_TYPE":0,"CLASSIFICATION_TYPE":"U","NORAD_CAT_ID":25994,"ELEMENT_SET_NO":999,"REV_AT_EPOCH":39457,"BSTAR":0.00013705483,"MEAN_MOTION_DOT":6.28e-6,"MEAN_MOTION_DDOT":0},{"OBJECT_NAME":"MAROC-TUBSAT","OBJECT_ID":"2001-056D","EPOCH":"2026-03-05T10:58:35.808960","MEAN_MOTION":13.70257807,"ECCENTRICITY":0.0020383,"INCLINATION":99.8003,"RA_OF_ASC_NODE":239.3788,"ARG_OF_PERICENTER":50.1314,"MEAN_ANOMALY":336.7648,"EPHEMERIS_TYPE":0,"CLASSIFICATION_TYPE":"U","NORAD_CAT_ID":27004,"ELEMENT_SET_NO":999,"REV_AT_EPOCH":21198,"BSTAR":3.2302e-5,"MEAN_MOTION_DOT":-1.8e-7,"MEAN_MOTION_DDOT":0},{"OBJECT_NAME":"AQUA","OBJECT_ID":"2002-022A","EPOCH":"2026-03-06T06:29:40.658208","MEAN_MOTION":14.61967232,"ECCENTRICITY":5.963e-5,"INCLINATION":98.4171,"RA_OF_ASC_NODE":32.5734,"ARG_OF_PERICENTER":64.3076,"MEAN_ANOMALY":39.4624,"EPHEMERIS_TYPE":0,"CLASSIFICATION_TYPE":"U","NORAD_CAT_ID":27424,"ELEMENT_SET_NO":999,"REV_AT_EPOCH":26823,"BSTAR":0.00030942619,"MEAN_MOTION_DOT":1.501e-5,"MEAN_MOTION_DDOT":0},{"OBJECT_NAME":"IRS-P6 (RESOURCESAT-1)","OBJECT_ID":"2003-046A","EPOCH":"2026-03-06T06:25:17.975424","MEAN_MOTION":14.36114865,"ECCENTRICITY":0.00630049,"INCLINATION":98.2048,"RA_OF_ASC_NODE":106.7583,"ARG_OF_PERICENTER":291.5651,"MEAN_ANOMALY":201.1294,"EPHEMERIS_TYPE":0,"CLASSIFICATION_TYPE":"U","NORAD_CAT_ID":28051,"ELEMENT_SET_NO":999,"REV_AT_EPOCH":16575,"BSTAR":0.00010780026,"MEAN_MOTION_DOT":2.79e-6,"MEAN_MOTION_DDOT":0},{"OBJECT_NAME":"SHIYAN-1 (SY-1)","OBJECT_ID":"2004-012A","EPOCH":"2026-03-06T03:24:05.990400","MEAN_MOTION":15.30908686,"ECCENTRICITY":0.00061517,"INCLINATION":97.8772,"RA_OF_ASC_NODE":136.7076,"ARG_OF_PERICENTER":35.8542,"MEAN_ANOMALY":324.3109,"EPHEMERIS_TYPE":0,"CLASSIFICATION_TYPE":"U","NORAD_CAT_ID":28220,"ELEMENT_SET_NO":999,"REV_AT_EPOCH":19531,"BSTAR":0.00053596585,"MEAN_MOTION_DOT":0.00015948,"MEAN_MOTION_DDOT":0},{"OBJECT_NAME":"AURA","OBJECT_ID":"2004-026A","EPOCH":"2026-03-06T06:33:08.366400","MEAN_MOTION":14.61139632,"ECCENTRICITY":0.00010237,"INCLINATION":98.3307,"RA_OF_ASC_NODE":20.9538,"ARG_OF_PERICENTER":80.3158,"MEAN_ANOMALY":279.8158,"EPHEMERIS_TYPE":0,"CLASSIFICATION_TYPE":"U","NORAD_CAT_ID":28376,"ELEMENT_SET_NO":999,"REV_AT_EPOCH":15118,"BSTAR":0.00031324,"MEAN_MOTION_DOT":1.493e-5,"MEAN_MOTION_DDOT":0},{"OBJECT_NAME":"IRS-P5 (CARTOSAT-1)","OBJECT_ID":"2005-017A","EPOCH":"2026-03-06T07:48:47.666880","MEAN_MOTION":14.90750793,"ECCENTRICITY":0.00024153,"INCLINATION":97.5416,"RA_OF_ASC_NODE":93.0226,"ARG_OF_PERICENTER":72.6348,"MEAN_ANOMALY":287.5135,"EPHEMERIS_TYPE":0,"CLASSIFICATION_TYPE":"U","NORAD_CAT_ID":28649,"ELEMENT_SET_NO":999,"REV_AT_EPOCH":12849,"BSTAR":0.0001959616,"MEAN_MOTION_DOT":1.873e-5,"MEAN_MOTION_DDOT":0},{"OBJECT_NAME":"SINAH 1","OBJECT_ID":"2005-043D","EPOCH":"2026-03-06T06:27:36.119520","MEAN_MOTION":14.64068773,"ECCENTRICITY":0.00134902,"INCLINATION":98.2677,"RA_OF_ASC_NODE":199.0869,"ARG_OF_PERICENTER":235.7886,"MEAN_ANOMALY":124.2038,"EPHEMERIS_TYPE":0,"CLASSIFICATION_TYPE":"U","NORAD_CAT_ID":28893,"ELEMENT_SET_NO":999,"REV_AT_EPOCH":8546,"BSTAR":0.00014353258,"MEAN_MOTION_DOT":7.05e-6,"MEAN_MOTION_DDOT":0},{"OBJECT_NAME":"RESURS-DK 1","OBJECT_ID":"2006-021A","EPOCH":"2026-03-06T05:30:06.443136","MEAN_MOTION":15.12714009,"ECCENTRICITY":0.00022812,"INCLINATION":69.931,"RA_OF_ASC_NODE":245.9748,"ARG_OF_PERICENTER":165.2061,"MEAN_ANOMALY":194.9173,"EPHEMERIS_TYPE":0,"CLASSIFICATION_TYPE":"U","NORAD_CAT_ID":29228,"ELEMENT_SET_NO":999,"REV_AT_EPOCH":8700,"BSTAR":0.00021603943,"MEAN_MOTION_DOT":3.686e-5,"MEAN_MOTION_DDOT":0},{"OBJECT_NAME":"ARIRANG-2 (KOMPSAT-2)","OBJECT_ID":"2006-031A","EPOCH":"2026-03-06T08:22:43.255200","MEAN_MOTION":14.64584601,"ECCENTRICITY":0.0015419,"INCLINATION":97.8292,"RA_OF_ASC_NODE":254.7636,"ARG_OF_PERICENTER":43.7411,"MEAN_ANOMALY":77.4354,"EPHEMERIS_TYPE":0,"CLASSIFICATION_TYPE":"U","NORAD_CAT_ID":29268,"ELEMENT_SET_NO":999,"REV_AT_EPOCH":4642,"BSTAR":7.2825167e-5,"MEAN_MOTION_DOT":3.42e-6,"MEAN_MOTION_DDOT":0},{"OBJECT_NAME":"LAPAN-TUBSAT","OBJECT_ID":"2007-001A","EPOCH":"2026-03-06T06:58:34.842720","MEAN_MOTION":14.85827659,"ECCENTRICITY":0.00125987,"INCLINATION":98.1328,"RA_OF_ASC_NODE":62.2146,"ARG_OF_PERICENTER":154.3755,"MEAN_ANOMALY":205.8087,"EPHEMERIS_TYPE":0,"CLASSIFICATION_TYPE":"U","NORAD_CAT_ID":29709,"ELEMENT_SET_NO":999,"REV_AT_EPOCH":3587,"BSTAR":0.00018841152,"MEAN_MOTION_DOT":1.584e-5,"MEAN_MOTION_DDOT":0},{"OBJECT_NAME":"HAIYANG-1B","OBJECT_ID":"2007-010A","EPOCH":"2026-03-06T05:18:54.401472","MEAN_MOTION":14.30998147,"ECCENTRICITY":0.00141525,"INCLINATION":98.3426,"RA_OF_ASC_NODE":51.1015,"ARG_OF_PERICENTER":142.4125,"MEAN_ANOMALY":217.8051,"EPHEMERIS_TYPE":0,"CLASSIFICATION_TYPE":"U","NORAD_CAT_ID":31113,"ELEMENT_SET_NO":999,"REV_AT_EPOCH":98590,"BSTAR":7.6856557e-5,"MEAN_MOTION_DOT":1.61e-6,"MEAN_MOTION_DDOT":0},{"OBJECT_NAME":"COSMO-SKYMED 1","OBJECT_ID":"2007-023A","EPOCH":"2026-03-06T06:06:24.979392","MEAN_MOTION":14.96500257,"ECCENTRICITY":9.202e-5,"INCLINATION":97.8863,"RA_OF_ASC_NODE":256.2591,"ARG_OF_PERICENTER":98.8639,"MEAN_ANOMALY":261.2686,"EPHEMERIS_TYPE":0,"CLASSIFICATION_TYPE":"U","NORAD_CAT_ID":31598,"ELEMENT_SET_NO":999,"REV_AT_EPOCH":1439,"BSTAR":0.00033879783,"MEAN_MOTION_DOT":3.79e-5,"MEAN_MOTION_DDOT":0}]
