SCD 1                   
1 22490U 93009B   26065.26791448  .00000588  00000+0  10968-3 0  9995
2 22490  24.9685 123.0152 0042172 128.4833 288.8131 14.46065500746203
TECHSAT 1B (GO-32)      
1 25397U 98043D   26064.94689580  .00000100  00000+0  63444-4 0  9992
2 25397  99.0023  55.1278 0001952 125.5048 234.6312 14.24404795436634
SCD 2                   
1 25504U 98060A   26065.10242352  .00000517  00000+0  93363-4 0  9997
2 25504  24.9967 347.8635 0016977 113.6203  16.2133 14.45480534445396
DLR-TUBSAT              
1 25757U 99029B   26065.23246353  .00000173  00000+0  54257-4 0  9999
2 25757  98.6662  57.3707 0013271 306.1413  53.8553 14.52395819418308
TERRA                   
1 25994U 99068A   26065.22407828  .00000628  00000+0  13705-3 0  9997
2 25994  97.9600 118.7911 0002496 159.7278 270.0945 14.61010573394573
MAROC-TUBSAT            
1 27004U 01056D   26064.45735890 -.00000018  00000+0  32302-4 0  9997
2 27004  99.8003 239.3788 0020383  50.1314 336.7648 13.70257807211982
AQUA                    
1 27424U 02022A   26065.27060947  .00001501  00000+0  30943-3 0  9997
2 27424  98.4171  32.5734 0000596  64.3076  39.4624 14.61967232268231
IRS-P6 (RESOURCESAT-1)  
1 28051U 03046A   26065.26756916  .00000279  00000+0  10780-3 0  9996
2 28051  98.2048 106.7583 0063004 291.5651 201.1294 14.36114865165753
SHIYAN-1 (SY-1)         
1 28220U 04012A   26065.14173600  .00015948  00000+0  53597-3 0  9990
2 28220  97.8772 136.7076 0006151  35.8542 324.3109 15.30908686195313
AURA                    
1 28376U 04026A   26065.27301350  .00001493  00000+0  31324-3 0  9990
2 28376  98.3307  20.9538 0001023  80.3158 279.8158 14.61139632151188
IRS-P5 (CARTOSAT-1)     
1 28649U 05017A   26065.32555170  .00001873  00000+0  19596-3 0  9990
2 28649  97.5416  93.0226 0002415  72.6348 287.5135 14.90750793128497
SINAH 1                 
1 28893U 05043D   26065.26916805  .00000705  00000+0  14353-3 0  9998
2 28893  98.2677 199.0869 0013490 235.7886 124.2038 14.64068773 85468
RESURS-DK 1             
1 29228U 06021A   26065.22924124  .00003686  00000+0  21604-3 0  9995
2 29228  69.9310 245.9748 0002281 165.2061 194.9173 15.12714009 87005
ARIRANG-2 (KOMPSAT-2)   
1 29268U 06031A   26065.34911175  .00000342  00000+0  72825-4 0  9993
2 29268  97.8292 254.7636 0015419  43.7411  77.4354 14.64584601 46424
LAPAN-TUBSAT            
1 29709U 07001A   26065.29068105  .00001584  00000+0  18841-3 0  9997
2 29709  98.1328  62.2146 0012598 154.3755 205.8087 14.85827659 35874
HAIYANG-1B              
1 31113U 07010A   26065.22146298  .00000161  00000+0  76857-4 0  9994
2 31113  98.3426  51.1015 0014152 142.4125 217.8051 14.30998147985909
COSMO-SKYMED 1          
1 31598U 07023A   26065.25445578  .00003790  00000+0  33880-3 0  9990
2 31598  97.8863 256.2591 0000920  98.8639 261.2686 14.96500257 14390
